OBJECT_NAME,OBJECT_ID,EPOCH,MEAN_MOTION,ECCENTRICITY,INCLINATION,RA_OF_ASC_NODE,ARG_OF_PERICENTER,MEAN_ANOMALY,EPHEMERIS_TYPE,CLASSIFICATION_TYPE,NORAD_CAT_ID,ELEMENT_SET_NO,REV_AT_EPOCH,BSTAR,MEAN_MOTION_DOT,MEAN_MOTION_DDOT
GALAXY 33 (G-33),2022-128A,2026-06-14T11:07:10.938720,1.00271044,.0001594,0.0117,342.7761,103.4844,210.3025,0,U,54026,999,1371,0,.86E-6,0
GALAXY 34 (G-34),2022-128B,2026-06-13T17:40:21.665568,1.00275311,.00015307,0.0115,29.5169,67.3543,301.2703,0,U,54027,999,1387,0,.69E-6,0
ANGOSAT 2,2022-131A,2026-06-13T23:31:37.945056,1.00271685,.00011187,0.0320,78.9173,38.9375,160.3480,0,U,54033,999,1344,0,.145E-5,0
EUTELSAT HOTBIRD 13F,2022-134A,2026-06-14T01:11:30.148800,1.00271305,.00020409,0.0487,293.2403,60.2338,299.7684,0,U,54048,999,1334,0,.96E-6,0
LDPE-2,2022-144A,2026-06-14T10:37:54.679008,1.00530861,.0001834,5.6064,63.6743,105.4842,93.0041,0,U,54219,999,1181,0,.134E-5,0
EUTELSAT HOTBIRD 13G,2022-146A,2026-06-13T14:55:30.273888,1.00271640,.00018698,0.0497,229.4542,318.9715,310.3925,0,U,54225,999,743,0,.98E-6,0
ZHONGXING-19,2022-148A,2026-06-14T13:00:38.636640,1.00271201,.0002211,0.0067,275.1597,195.4858,150.5471,0,U,54230,999,1335,0,-.74E-6,0
GALAXY 31 (G-31),2022-153A,2026-06-14T10:49:11.706816,1.00270207,.0000984,0.0194,15.4452,59.7902,228.8032,0,U,54243,999,710,0,0,0
GALAXY 32 (G-32),2022-153B,2026-06-13T14:25:37.455744,1.00271032,.0001981,0.0146,26.6441,6.1350,354.5447,0,U,54244,999,1310,0,-.163E-5,0
EUTELSAT 10B,2022-157A,2026-06-14T08:01:16.390272,1.00266046,.0001359,0.0637,100.3361,14.5469,278.0806,0,U,54259,999,1299,0,.76E-6,0
GALAXY 35 (G-35),2022-170A,2026-06-14T10:57:10.940832,1.00269257,.0001781,0.0200,2.0527,83.9723,247.9196,0,U,54741,999,1286,0,0,0
GALAXY 36 (G-36),2022-170B,2026-06-14T10:58:18.335424,1.00271039,.0002465,0.0419,123.4342,320.0364,254.8690,0,U,54742,999,1274,0,-.178E-5,0
METEOSAT-12 (MTG-I1),2022-170C,2026-06-14T07:58:16.677408,1.00272007,.0003135,0.7352,22.4795,72.1264,287.1767,0,U,54743,999,1294,0,-.1E-7,0
SHIJIAN-23 (SJ-23),2023-002A,2026-06-13T16:59:37.877856,1.00088336,.0003794,3.7083,78.3558,271.7420,317.2385,0,U,55131,999,1247,0,-.224E-5,0
APSTAR-6E,2023-005A,2026-06-14T06:54:03.514752,1.00271177,.0001017,0.0338,251.8070,319.4290,288.8897,0,U,55239,999,1866,0,-.309E-5,0
USA 342,2023-008A,2026-06-12T15:01:23.172096,1.00272733,.0000206,0.0059,338.0459,258.5222,273.5711,0,U,55263,999,1247,0,0,0
LDPE-3A,2023-008B,2026-06-14T10:55:48.573120,0.99144721,.0001084,2.3406,81.6961,65.7501,181.3105,0,U,55264,999,1178,0,.11E-6,0
ELEKTRO-L 4,2023-016A,2026-06-13T19:28:18.473952,1.00270540,.000074,0.0729,168.4146,5.0196,186.5720,0,U,55506,999,1230,0,-.48E-6,0
AMAZONAS NEXUS,2023-017A,2026-06-14T11:06:17.567712,1.00272709,.0005004,0.0355,33.3328,35.6734,299.3464,0,U,55508,999,701,0,-.275E-5,0
ZHONGXING-26,2023-023A,2026-06-14T00:00:35.169120,1.00272976,.00032602,0.0684,71.0668,15.1921,301.3056,0,U,55686,999,1219,0,-.344E-5,0
LUCH-5X (OLYMP-K 2),2023-031A,2026-06-13T17:16:48.425088,1.00270613,.0000663,0.0260,57.4593,161.4113,4.3436,0,U,55841,999,1190,0,.44E-6,0
GAOFEN-13 02,2023-036A,2026-06-14T12:23:38.797728,1.00270946,.0004125,1.0201,0.7967,335.4509,260.7816,0,U,55912,999,1206,0,-.212E-5,0
SES-18,2023-038A,2026-06-14T10:54:11.227968,1.00270961,.0000259,0.0163,299.4200,350.1929,33.5903,0,U,55970,999,1207,0,-.93E-6,0
SES-19,2023-038B,2026-06-14T11:02:59.005824,1.00270378,.0001374,0.0090,343.4709,96.2462,213.8908,0,U,55971,999,1206,0,.95E-6,0
INTELSAT 40E (IS-40E),2023-052A,2026-06-13T14:25:37.455744,1.00271684,.00018421,0.0150,41.2245,85.1314,260.9697,0,U,56174,999,1178,0,-.163E-5,0
VIASAT-3 F1,2023-060A,2026-06-13T22:59:44.463264,1.00270620,.00008454,0.0242,335.9098,97.2581,85.0616,0,U,56370,999,1140,0,0,0
ARCTURUS,2023-060B,2026-06-14T10:01:48.797760,1.00272278,.0002481,2.7687,79.9854,47.8127,357.8610,0,U,56371,999,1143,0,-.57E-6,0
GS-1,2023-060C,2026-06-13T20:19:35.865696,1.00275569,.00038436,2.7178,79.8739,282.3702,294.1673,0,U,56372,999,750,0,-.216E-5,0
BEIDOU-3 G4,2023-066A,2026-06-14T12:03:43.816608,1.00274578,.0004291,0.4897,330.7659,181.9191,71.0522,0,U,56564,999,1136,0,-.273E-5,0
ARABSAT-7B (BADR-8),2023-075A,2026-06-14T08:05:38.469984,1.00269970,.000442,0.0772,28.9859,353.8225,27.2445,0,U,56757,999,1108,0,.152E-5,0
NVS-01 (IRNSS-1J),2023-076A,2026-06-14T12:00:44.102880,1.00265911,.0003194,2.1724,244.4781,36.6659,291.3460,0,U,56759,999,1108,0,-.327E-5,0
