GALAXY 33 (G-33)        
1 54026U 22128A   26165.46332105  .00000086  00000+0  00000+0 0  9998
2 54026   0.0117 342.7761 0001594 103.4844 210.3025  1.00271044 13715
GALAXY 34 (G-34)        
1 54027U 22128B   26164.73636187  .00000069  00000+0  00000+0 0  9996
2 54027   0.0115  29.5169 0001530  67.3543 301.2703  1.00275311 13871
ANGOSAT 2               
1 54033U 22131A   26164.98030029  .00000145  00000+0  00000+0 0  9992
2 54033   0.0320  78.9173 0001118  38.9375 160.3480  1.00271685 13447
EUTELSAT HOTBIRD 13F    
1 54048U 22134A   26165.04965450  .00000096  00000+0  00000+0 0  9999
2 54048   0.0487 293.2403 0002040  60.2338 299.7684  1.00271305 13348
LDPE-2                  
1 54219U 22144A   26165.44299397  .00000134  00000+0  00000+0 0  9997
2 54219   5.6064  63.6743 0001834 105.4842  93.0041  1.00530861 11815
EUTELSAT HOTBIRD 13G    
1 54225U 22146A   26164.62187817  .00000098  00000+0  00000+0 0  9997
2 54225   0.0497 229.4542 0001869 318.9715 310.3925  1.00271640  7434
ZHONGXING-19            
1 54230U 22148A   26165.54211385 -.00000074  00000+0  00000+0 0  9990
2 54230   0.0067 275.1597 0002211 195.4858 150.5471  1.00271201 13350
GALAXY 31 (G-31)        
1 54243U 22153A   26165.45082994  .00000000  00000+0  00000+0 0  9990
2 54243   0.0194  15.4452 0000984  59.7902 228.8032  1.00270207  7100
GALAXY 32 (G-32)        
1 54244U 22153B   26164.60112796 -.00000163  00000+0  00000+0 0  9992
2 54244   0.0146  26.6441 0001981   6.1350 354.5447  1.00271032 13102
EUTELSAT 10B            
1 54259U 22157A   26165.33421748  .00000076  00000+0  00000+0 0  9995
2 54259   0.0637 100.3361 0001359  14.5469 278.0806  1.00266046 12991
GALAXY 35 (G-35)        
1 54741U 22170A   26165.45637663  .00000000  00000+0  00000+0 0  9991
2 54741   0.0200   2.0527 0001781  83.9723 247.9196  1.00269257 12867
GALAXY 36 (G-36)        
1 54742U 22170B   26165.45715666 -.00000178  00000+0  00000+0 0  9999
2 54742   0.0419 123.4342 0002465 320.0364 254.8690  1.00271039 12743
METEOSAT-12 (MTG-I1)    
1 54743U 22170C   26165.33213747 -.00000001  00000+0  00000+0 0  9995
2 54743   0.7352  22.4795 0003135  72.1264 287.1767  1.00272007 12948
SHIJIAN-23 (SJ-23)      
1 55131U 23002A   26164.70807729 -.00000224  00000+0  00000+0 0  9998
2 55131   3.7083  78.3558 0003794 271.7420 317.2385  1.00088336 12472
APSTAR-6E               
1 55239U 23005A   26165.28754068 -.00000309  00000+0  00000+0 0  9995
2 55239   0.0338 251.8070 0001017 319.4290 288.8897  1.00271177 18667
USA 342                 
1 55263U 23008A   26163.62596264  .00000000  00000+0  00000+0 0  9990
2 55263   0.0059 338.0459 0000206 258.5222 273.5711  1.00272733 12478
LDPE-3A                 
1 55264U 23008B   26165.45542330  .00000011  00000+0  00000+0 0  9991
2 55264   2.3406  81.6961 0001084  65.7501 181.3105  0.99144721 11780
ELEKTRO-L 4             
1 55506U 23016A   26164.81132493 -.00000048  00000+0  00000+0 0  9994
2 55506   0.0729 168.4146 0000740   5.0196 186.5720  1.00270540 12307
AMAZONAS NEXUS          
1 55508U 23017A   26165.46270333 -.00000275  00000+0  00000+0 0  9997
2 55508   0.0355  33.3328 0005004  35.6734 299.3464  1.00272709  7010
ZHONGXING-26            
1 55686U 23023A   26165.00040705 -.00000344  00000+0  00000+0 0  9996
2 55686   0.0684  71.0668 0003260  15.1921 301.3056  1.00272976 12193
LUCH-5X (OLYMP-K 2)     
1 55841U 23031A   26164.72000492  .00000044  00000+0  00000+0 0  9991
2 55841   0.0260  57.4593 0000663 161.4113   4.3436  1.00270613 11909
GAOFEN-13 02            
1 55912U 23036A   26165.51642127 -.00000212  00000+0  00000+0 0  9998
2 55912   1.0201   0.7967 0004125 335.4509 260.7816  1.00270946 12066
SES-18                  
1 55970U 23038A   26165.45429662 -.00000093  00000+0  00000+0 0  9991
2 55970   0.0163 299.4200 0000259 350.1929  33.5903  1.00270961 12078
SES-19                  
1 55971U 23038B   26165.46040516  .00000095  00000+0  00000+0 0  9991
2 55971   0.0090 343.4709 0001374  96.2462 213.8908  1.00270378 12060
INTELSAT 40E (IS-40E)   
1 56174U 23052A   26164.60112796 -.00000163  00000+0  00000+0 0  9995
2 56174   0.0150  41.2245 0001842  85.1314 260.9697  1.00271684 11781
VIASAT-3 F1             
1 56370U 23060A   26164.95815351  .00000000  00000+0  00000+0 0  9996
2 56370   0.0242 335.9098 0000845  97.2581  85.0616  1.00270620 11407
ARCTURUS                
1 56371U 23060B   26165.41792590 -.00000057  00000+0  00000+0 0  9991
2 56371   2.7687  79.9854 0002481  47.8127 357.8610  1.00272278 11438
GS-1                    
1 56372U 23060C   26164.84694289 -.00000216  00000+0  00000+0 0  9991
2 56372   2.7178  79.8739 0003843 282.3702 294.1673  1.00275569  7504
BEIDOU-3 G4             
1 56564U 23066A   26165.50259047 -.00000273  00000+0  00000+0 0  9996
2 56564   0.4897 330.7659 0004291 181.9191  71.0522  1.00274578 11367
ARABSAT-7B (BADR-8)     
1 56757U 23075A   26165.33725081  .00000152  00000+0  00000+0 0  9992
2 56757   0.0772  28.9859 0004420 353.8225  27.2445  1.00269970 11085
NVS-01 (IRNSS-1J)       
1 56759U 23076A   26165.50051045 -.00000327  00000+0  00000+0 0  9991
2 56759   2.1724 244.4781 0003194  36.6659 291.3460  1.00265911 11082
